[ {"URL":"http://www.just-eat.co.uk/restaurants-cn-chinese-cardiff/menu","_id":"55f14312c7447c3da7051b26","address":"228 City Road","address line 2":"Cardiff","name":".CN Chinese","outcode":"CF24","postcode":"8NX","rating":5,"type_of_food":"Chinese"}, {"URL":"http://www.just-eat.co.uk/restaurants-atthai-ss9/menu","_id":"55f14312c7447c3da7051b27","address":"376 Rayleigh Road","address line 2":"Essex","name":"@ Thai","outcode":"SS9","postcode":"8NX","rating":5.5,"type_of_food":"Thai"}, {"URL":"http://www.just-eat.co.uk/restaurants-atthairestaurant/menu","_id":"55f14312c7447c3da7051b28","address":"30 Greyhound Road Hammersmith","address line 2":"London","name":"@ Thai Restaurant","outcode":"W6","postcode":"8NX","rating":4.5,"type_of_food":"Thai"}, {"URL":"http://www.just-eat.co.uk/restaurants-indiancom-ch4/menu","_id":"55f14312c7447c3da7051b2a","address":"9 Broughton Hall Road","address line 2":"Broughton","name":"@Indian.com","outcode":"CH4","postcode":"8NX","rating":6,"type_of_food":"Curry"}, {"URL":"http://www.just-eat.co.uk/restaurants-007takeaway-s65/menu","_id":"55f14312c7447c3da7051b2b","address":"6 Drummond Street","address line 2":"Rotherham","name":"007 Takeaway","outcode":"S65","postcode":"3HR","rating":6,"type_of_food":"Pizza"}, {"URL":"http://www.just-eat.co.uk/restaurants-042-restaurant-e11/menu","_id":"55f14312c7447c3da7051b2c","address":"885 High Road Leytonstone","address line 2":"London","name":"042 Restaurant \u0026 Bar","outcode":"E11","postcode":"1HR","rating":3,"type_of_food":"African"}, {"URL":"http://www.just-eat.co.uk/restaurants-1-2-3-chinese-rowlands-gill/menu","_id":"55f14312c7447c3da7051b2f","address":"Unit 4 Spencer House","address line 2":"Swalwell","name":"1 2 3 Chinese","outcode":"NE16","postcode":"1HR","rating":4.5,"type_of_food":"Chinese"}, {"URL":"http://www.just-eat.co.uk/restaurants-100-degrees-chinese-restaurant-pontypridd/menu","_id":"55f14312c7447c3da7051b31","address":"67 Park Street","address line 2":"Treforest","name":"100 Degrees Chinese Restaurant","outcode":"CF37","postcode":"1HR","rating":5,"type_of_food":"Chinese"}, {"URL":"http://www.just-eat.co.uk/restaurants-100menu-wn1/menu","_id":"55f14312c7447c3da7051b32","address":"50 Wallgate","address line 2":"Wigan","name":"100 Menu","outcode":"WN1","postcode":"8NX","rating":5,"type_of_food":"Chinese"}, {"URL":"http://www.just-eat.co.uk/restaurants-104-turkish-BBQ/menu","_id":"55f14312c7447c3da7051b33","address":"104 Tanners Lane","address line 2":"Essex","name":"104 Turkish BBQ","outcode":"IG6","postcode":"8NX","rating":5,"type_of_food":"Turkish"}, {"URL":"http://www.just-eat.co.uk/restaurants-109restaurant-w2/menu","_id":"55f14312c7447c3da7051b34","address":"109 Westbourne Park Road","address line 2":"London","name":"109 Ristorante","outcode":"W2","postcode":"1HR","rating":5,"type_of_food":"Pizza"}, {"URL":"http://www.just-eat.co.uk/restaurants-113-fish-bar-wallasey/menu","_id":"55f14s Hill","address line 2":"Sevenoaks","name":"7 Oaks Grill","outcode":"TN13","postcode":"1HR","rating":4.5,"type_of_food":"English"}, {"URL":"http://www.just-eat.co.uk/restaurants-7spices-s3/menu","_id":"55f14312c7447c3da7051b77","address":"Mayfair Court","address line 2":"Sheffield","name":"7 Spices","outcode":"S3","postcode":"8PP","rating":5,"type_of_food":"Curry"}, {"URL":"http://www.just-eat.co.uk/restaurants-7Spices-LS6/menu","_id":"55f14312c7447c3da7051b78","address":"203-205 Woodhouse Street","address line 2":"Leeds","name":"7 Spices","outcode":"LS6","postcode":"1HR","rating":5,"type_of_food":"Curry"}, {"URL":"http://www.just-eat.co.uk/restaurants-7spices-g32/menu","_id":"55f14312c7447c3da7051b79","address":"975 Carntyne Road","address line 2":"Glasgow","name":"7 Spices Takeaway","outcode":"G32","postcode":"1HR","rating":4.5,"type_of_food":"Curry"}, {"URL":"http://www.just-eat.co.uk/restaurants-7star-ne6/menu","_id":"55f14312c7447c3da7051b7a","address":"824 Shields Road","address line 2":"Newcastle","name":"7 STAR Pizza","outcode":"NE6","postcode":"1HR","rating":5.5,"type_of_food":"Pizza"}, {"URL":"http://www.just-eat.co.uk/restaurants-7starspices-g52/menu","_id":"55f14312c7447c3da7051b7d","address":"828 Mosspark Drive","address line 2":"Lanarkshire","name":"7 Star Spices","outcode":"G52","postcode":"3DA","rating":5.5,"type_of_food":"Pizza"}, {"URL":"http://www.just-eat.co.uk/restaurants-700degrees-gu51/menu","_id":"55f14312c7447c3da7051b7e","address":"192-196 Fleet Road","address line 2":"Hampshire","name":"700 Degrees","outcode":"GU51","postcode":"4BY","rating":4.5,"type_of_food":"Chicken"}, {"URL":"http://www.just-eat.co.uk/restaurants-88-chinese-millbrook/menu","_id":"55f14312c7447c3da7051b7f","address":"44 London Road","address line 2":"Southampton","name":"88 Chinese","outcode":"SO15","postcode":"2AH","rating":5,"type_of_food":"Chinese"}, {"URL":"http://www.just-eat.co.uk/restaurants-88noodlebar-hd1/menu","_id":"55f14312c7447c3da7051b80","address":"15 Cross Church Street","address line 2":"Huddersfield","name":"88 Noodle Bar","outcode":"HD1","postcode":"8NX","rating":4,"type_of_food":"Chinese"}, {"URL":"http://www.just-eat.co.uk/restaurants-888chinese-so23/menu","_id":"55f14312c7447c3da7051b81","address":"77 North Walls","address line 2":"Winchester","name":"888 Chinese Takeaway","outcode":"SO23","postcode":"8DA","rating":5,"type_of_food":"Chinese"}, {"URL":"http://www.just-eat.co.uk/restaurants-888tripleeight-bh9/menu","_id":"55f14312c7447c3da7051b82","address":"888 Wimborne Road","address line 2":"Bournemouth","name":"888 Triple Eight","outcode":"BH9","postcode":"2DR","rating":5,"type_of_food":"Chinese"}, {"URL":"http://www.just-eat.co.uk/restaurants-9cfc/menu","_id":"55f14312c7447c3da7051b83","address":"7 Shopping Precinct","address line 2":"Featherstone","name":"9 Inch CFC","outcode":"WF7","postcode":"5BX","rating":5,"type_of_food":"Pizza"}, {"URL":"http://www.just-eat.co.uk/restaurants-9thavenuepizzeria-bt78/menu","_id":"55f14312c7447c3da7051b84","address":"9 Dromore Road","address line 2":"Omagh","name":"9th Avenue Pizzeria","outcode":"BT78","postcode":"1QZ","rating":5.5,"type_of_food":"Pizza"}, {"URL":"http://www.just-eat.co.uk/restaurants-9thkitchen-b26/menu","_id":"55f14312c7447c3da7051b85","address":"397 Sheldon Heath Road","address line 2":"Sheldon","name":"9th Kitchen","outcode":"B26","postcode":"2UB","rating":5,"type_of_food":"Chinese"}, {"URL":"http://www.just-eat.co.uk/restaurants-A-G-Kitchen-M40/menu","_id":"55f14312c7447c3da7051b86","address":"267 Nuthurst Road","address line 2":"Manchester","name":"A \u0026 G Kitchen","outcode":"M40","postcode":"3PU","rating":5,"type_of_food":"Chinese"}, {"URL":"http://www.just-eat.co.uk/restaurants-a-and-t-mundi-house-iffley/menu","_id":"55f14312c7447c3da7051b87","address":"64 Cowley Road","address line 2":"","name":"A \u0026 T Mundi House","outcode":"OX4","postcode":"1JB","rating":4.5,"type_of_food":"Arabic"}, {"URL":"http://www.just-eat.co.uk/restaurants-a-cake-a-shake-stockport/menu","_id":"55f14312c7447c3da7051b88","address":"8B - 12B Houldsworth Street","address line 2":"Stockport","name":"A Cake A Shake","outcode":"SK5","postcode":"6DA","rating":4.5,"type_of_food":"Desserts"}, {"URL":"http://www.just-eat.co.uk/restaurants-a-cake-a-shake-stockport/menu","_id":"55f14312c7447c3da7051b89","address":"8B - 12B Houldsworth Street","address line 2":"Stockport","name":"A Cake A Shake","outcode":"SK5","postcode":"6DA","rating":4.5,"type_of_food":"Desserts"}, {"URL":"http://www.just-eat.co.uk/restaurants-afishcalledrhondda-cf42/menu","_id":"55f14312c7447c3da7051b8a","address":"19 - 20 Church Road","address line 2":"Mid Glamorgan","name":"A Fish Called Rhondda","outcode":"CF41","postcode":"8NX","rating":5.5,"type_of_food":"English"}, {"URL":"http://www.just-eat.co.uk/restaurants-alapizza/menu","_id":"55f14312c7447c3da7051b8b","address":"28 Upton Lane","address line 2":"London","name":"A La Pizza","outcode":"E7","postcode":"9LN","rating":4.5,"type_of_food":"Pizza"}, {"URL":"http://www.just-eat.co.uk/restaurants-alaturka-pr7/menu","_id":"55f14312c7447c3da7051b8d","address":"99 Market Street","address line 2":"Chorley","name":"A La Turka","outcode":"PR7","postcode":"2SQ","rating":5.5,"type_of_food":"Pizza"}, {"URL":"http://www.just-eat.co.uk/restaurants-ammians-bl1/menu","_id":"55f14312c7447c3da7051b8e","address":"60 Great Moor Street","address line 2":"Bolton","name":"A M Mians","outcode":"BL1","postcode":"8NX","rating":5.5,"type_of_food":"Kebab"}, {"URL":"http://www.just-eat.co.uk/restaurants-amatteroftaste-po6/menu","_id":"55f14312c7447c3da7051b90","address":"7 Spur Road","address line 2":"Cosham","name":"A Matter Of Taste","outcode":"PO6","postcode":"3DY","rating":5,"type_of_food":"Pizza"}, {"URL":"http://www.just-eat.co.uk/restaurants-aonetandoori-ka21/menu","_id":"55f14312c7447c3da7051b91","address":"43 Hamilton Street","address line 2":"Ayrshire","name":"A One Tandoori","outcode":"KA21","postcode":"8NX","rating":5,"type_of_food":"Curry"}, {"URL":"http://www.just-eat.co.uk/restaurants-a-passage-to-india/menu","_id":"55f14312c7447c3da7051b92","address":"76 Bold Street","address line 2":"Liverpool","name":"A Passage To India","outcode":"L1","postcode":"4HR","rating":5,"type_of_food":"Curry"}, {"URL":"http://www.just-eat.co.uk/restaurants-apassagetoindia-sk22/menu","_id":"55f14312c7447c3da7051b93","address":"29 Union Road","address line 2":"Derbyshire","name":"A Passage To India","outcode":"SK22","postcode":"3EL","rating":5.5,"type_of_food":"Curry"}, {"URL":"http://www.just-eat.co.uk/restaurants-sealandfishbar-ct1/menu","_id":"55f14312c7447c3da7051b94","address":"71 Sturry Road","address line 2":"Canterbury","name":"A Sealand Fish Bar - Collection Only","outcode":"CT1","postcode":"8NX","rating":5,"type_of_food":"Fish \u0026 Chips"}, {"URL":"http://www.just-eat.co.uk/restaurants-astarpizza-bl3/menu","_id":"55f14312c7447c3da7051b95","address":"289 Lever Street","address line 2":"Bolton","name":"A Star Chippy","outcode":"BL3","postcode":"6PD","rating":5.5,"type_of_food":"Fish \u0026 Chips"}, {"URL":"http://www.just-eat.co.uk/restaurants-a-taskinha-plymouth/menu","_id":"55f14312c7447c3da7051b96","address":"55 Union Street","address line 2":"Plymouth","name":"A Taskinha","outcode":"PL1","postcode":"8NX","rating":5.5,"type_of_food":"Portuguese"}, {"URL":"http://www.just-eat.co.uk/restaurants-atasteofpersia-ne1/menu","_id":"55f14312c7447c3da7051b97","address":"14 Marlborough Cresent","address line 2":"Newcastle","name":"A Taste Of Persia - Collection Only","outcode":"NE1","postcode":"8NX","rating":5.5,"type_of_food":"Persian"}, {"URL":"http://www.just-eat.co.uk/restaurants-atasteofpersia-ne1/menu","_id":"55f14312c7447c3da7051b98","address":"14 Marlborough Cresent","address line 2":"Newcastle","name":"A Taste Of Persia - Collection Only","outcode":"NE1","postcode":"4EE","rating":5.5,"type_of_food":"Persian"}, {"URL":"http://www.just-eat.co.uk/restaurants-a-to-buy-fish-chips-ab11/menu","_id":"55f14312c7447c3da7051b99","address":"7-9 Langstane Place","address line 2":"Aberdeen","name":"A To Buy Fish \u0026 Chips","outcode":"AB11","postcode":"6DX","rating":4.5,"type_of_food":"Fish \u0026 Chips"}, {"URL":"http://www.just-eat.co.uk/restaurants-a-touch-of-spice/menu","_id":"55f14312c7447c3da7051b9a","address":"32 Church Street","address line 2":"Radcliffe","name":"A Touch of Spice","outcode":"M26","postcode":"2SQ","rating":5,"type_of_food":"Curry"}, {"URL":"http://www.just-eat.co.uk/restaurants-a-touch-of-spice/menu","_id":"55f14312c7447c3da7051b9b","address":"32 Church Street","address line 2":"Radcliffe","name":"A Touch of Spice","outcode":"M26","postcode":"2SQ","rating":5,"type_of_food":"Curry"}, {"URL":"http://www.just-eat.co.uk/restaurants-aworldofflavours-de24/menu","_id":"55f14312c7447c3da7051b9c","address":"44 Pilgrims Way","address line 2":"Derby","name":"A World Of Fl@vours","outcode":"DE24","postcode":"3JG","rating":4.5,"type_of_food":"Curry"}, {"URL":"http://www.just-eat.co.uk/restaurants-a-yummy-pizza-bn21/menu","_id":"55f14312c7447c3da7051b9d","address":"85 Cavendish Place","address line 2":"Eastbourne","name":"A Yummy Pizza","outcode":"BN21","postcode":"3RR","rating":5.5,"type_of_food":"Pizza"}, {"URL":"http://www.just-eat.co.uk/restaurants-aandaperiperi-al1/menu","_id":"55f14312c7447c3da7051b9e","address":"124 London Road","address line 2":"Hertforshire","name":"A\u0026A Peri Peri","outcode":"AL1","postcode":"1PQ","rating":4.5,"type_of_food":"Peri Peri"}, {"URL":"http://www.just-eat.co.uk/restaurants-aands-fast-food-littleover/menu","_id":"55f14312c7447c3da7051b9f","address":"74b Osmaston Road","address line 2":"Derbyshire","name":"A\u0026S Fast Food","outcode":"DE1","postcode":"2HZ","rating":3.5,"type_of_food":"Curry"}, {"URL":"http://www.just-eat.co.uk/restaurants-ajspizza-wr3/menu","_id":"55f14312c7447c3da7051ba0","address":"8 Laslett Street","address line 2":"Worcester","name":"A.J's Pizza","outcode":"WR3","postcode":"8JS","rating":5.5,"type_of_food":"Pizza"}, {"URL":"http://www.just-eat.co.uk/restaurants-eko-food-market-charton/menu","_id":"55f14312c7447c3da7051ba1","address":"Unit 5 Meridan Estate","address line 2":"London","name":"èkó Food Market","outcode":"SE7","postcode":"7SJ","rating":4,"type_of_food":"African"}, {"URL":"http://www.just-eat.co.uk/restaurants-eko-food-market-charton/menu","_id":"55f14312c7447c3da7051ba2","address":"Unit 5 Meridan Estate","address line 2":"London","name":"èkó Food Market","outcode":"SE7","postcode":"7SJ","rating":4,"type_of_food":"African"}, {"URL":"http://www.just-eat.co.uk/restaurants-1fishshop-pa3/menu","_id":"55f14312c7447c3da7051ba3","address":"22 Old Sneddon Street","address line 2":"Paisley","name":"£1 Fish Shop","outcode":"PA3","postcode":"2AL","rating":3.5,"type_of_food":"Fish \u0026 Chips"}, {"URL":"http://www.just-eat.co.uk/restaurants-albaltihouse-m23/menu","_id":"55f14312c7447c3da7051ba4","address":"124 Sale Road","address line 2":"Nothern Moor","name":"A1 Balti House","outcode":"M23","postcode":"0BX","rating":5.5,"type_of_food":"Curry"}, {"URL":"http://www.just-eat.co.uk/restaurants-albaltihouse-m23/menu","_id":"55f14312c7447c3da7051ba5","address":"124 Sale Road","address line 2":"Nothern Moor","name":"A1 Balti House","outcode":"M23","postcode":"0BX","rating":5.5,"type_of_food":"Curry"}, {"URL":"http://www.just-eat.co.uk/restaurants-a1-pizzas/menu","_id":"55f14312c7447c3da7051ba6","address":"14 County Place","address line 2":"Perth","name":"A1 Pizzas","outcode":"PH2","postcode":"8EE","rating":5,"type_of_food":"Pizza"}, {"URL":"http://www.just-eat.co.uk/restaurants-ricenspice/menu","_id":"55f14312c7447c3da7051ba7","address":"82 Manor Street","address line 2":"Braintree","name":"A1 Rice 'N' Spice","outcode":"CM7","postcode":"3HR","rating":5,"type_of_food":"Curry"}, {"URL":"http://www.just-eat.co.uk/restaurants-a1wok-g72/menu","_id":"55f14312c7447c3da7051ba8","address":"Unit 2c Hallside Court Cambuslang","address line 2":"Glasgow","name":"A1 Wok","outcode":"G72","postcode":"8NX","rating":4.5,"type_of_food":"Chinese"}, {"URL":"http://www.just-eat.co.uk/restaurants-a12spice-ig2/menu","_id":"55f14312c7447c3da7051ba9","address":"980 Eastern Avenue","address line 2":"Ilford","name":"A12 Spice","outcode":"IG2","postcode":"8NX","rating":5.5,"type_of_food":"Curry"}, {"URL":"http://www.just-eat.co.uk/restaurants-a4pizzaandkebab-rg20/menu","_id":"55f14312c7447c3da7051bac","address":"Elcot Park","address line 2":"Newbury","name":"A4 Pizza \u0026 Kebab","outcode":"RG20","postcode":"3HR","rating":5.5,"type_of_food":"Pizza"}, {"URL":"http://www.just-eat.co.uk/restaurants-aa-charcoal-grill-woodingdean/menu","_id":"55f14312c7447c3da7051bad","address":"41 Lewes Road","address line 2":"Woodingdean","name":"AA Charcoal Grill","outcode":"BN2","postcode":"3HR","rating":4,"type_of_food":"Kebab"}, {"URL":"http://www.just-eat.co.uk/restaurants-aachichettinad-ha0/menu","_id":"55f14312c7447c3da7051baf","address":"545 High Road","address line 2":"Wembley","name":"Aachi Chettinad","outcode":"HA0","postcode":"3HR","rating":4,"type_of_food":"Curry"}, {"URL":"http://www.just-eat.co.uk/restaurants-aadams-m5/menu","_id":"55f14312c7447c3da7051bb1","address":"Unit 2a Trafford Road","address line 2":"Salford","name":"Aadams Authentic Grill","outcode":"M5","postcode":"3HR","rating":4.5,"type_of_food":"Kebab"}, {"URL":"http://www.just-eat.co.uk/restaurants-aakashbalti-wf13/menu","_id":"55f14312c7447c3da7051bb2","address":"1 Moor End Lane","address line 2":"Dewsbury","name":"Aakash Balti","outcode":"WF13","postcode":"3HR","rating":5,"type_of_food":"Curry"}, {"URL":"http://www.just-eat.co.uk/restaurants-AakashBaltiHG5/menu","_id":"55f14312c7447c3da7051bb3","address":"57 High Street","address line 2":"Knaresborough","name":"Aakash Balti","outcode":"HG5","postcode":"3HR","rating":5.5,"type_of_food":"Curry"}, {"URL":"http://www.just-eat.co.uk/restaurants-aakash-restaurant/menu","_id":"55f14312c7447c3da7051bb5","address":"Providence Place","address line 2":"Cleckheaton","name":"Aakash Restaurant","outcode":"BD19","postcode":"3HR","rating":5,"type_of_food":"Curry"}, {"URL":"http://www.just-eat.co.uk/restaurants-aamaya-ml3/menu","_id":"55f14312c7447c3da7051bb7","address":"23 Gateside Street","address line 2":"Lankarkshire","name":"Aamaya","outcode":"ML3","postcode":"7HT","rating":4,"type_of_food":"Curry"}, {"URL":"http://www.just-eat.co.uk/restaurants-aaminospizza-ha2/menu","_id":"55f14312c7447c3da7051bb8","address":"79 Station Road","address line 2":"Middlesex","name":"Aamino's Pizza","outcode":"HA2","postcode":"7SW","rating":4.5,"type_of_food":"Pizza"}, {"URL":"http://www.just-eat.co.uk/restaurants-aaniasindian-pa15/menu","_id":"55f14312c7447c3da7051bb9","address":"11/12 Grey Place","address line 2":"Greenock","name":"Aanias Takeaway","outcode":"PA15","postcode":"1YF","rating":5,"type_of_food":"Curry"}, {"URL":"http://www.just-eat.co.uk/restaurants-aaqafastfood-tw3/menu","_id":"55f14312c7447c3da7051bba","address":"34 Bell Road","address line 2":"Hounslow","name":"AAQA Fast Food","outcode":"TW3","postcode":"3PB","rating":5,"type_of_food":"Pizza"}, {"URL":"http://www.just-eat.co.uk/restaurants-aarisindian-s61/menu","_id":"55f14312c7447c3da7051bbb","address":"113 Psalters Lane","address line 2":"Rotherham","name":"Aaris Indian Restaurant","outcode":"S61","postcode":"1DL","rating":5,"type_of_food":"Curry"}, ]